SENTINEL-6              
1 46984U 20086A   24130.58405613 -.00000067  00000+0 -24224-4 0  9991
2 46984  66.0410 291.4477 0007761 270.6150  89.3976 12.80930765161883
